TLE
====
TLE(2行軌道要素形式)から人工衛星の各種軌道要素を取得するプログラム

概要
----
TLEは[NORAD Two-Line Element Sets](http://celestrak.com/NORAD/elements/)などから入手することができる<br>
TLEは下図のようなフォーマットで記述されている<br>
![tle](doc/TLE.png)<br>
このプログラムはこれらのデータを解読する<br>
Line 1とLine 2のチェックサムは利用せずに捨てている

要求
----
 * [Microsoft Visual Studio Community 2017](https://www.microsoft.com/ja-jp/dev/products/community.aspx)<br>
 * [Windows SDK](https://developer.microsoft.com/ja-jp/windows/downloads/windows-8-1-sdk)<br>

注意
----
以下の説明では[Cygwin](https://www.cygwin.com/)や[MSYS2](http://www.msys2.org/)等のターミナル上で、コマンドラインを用いてビルドを実行することを想定する。<br>

インストール
----

方法1: ダウンロード
------
[releaseページ](https://github.com/mkaminaga/tle/releases)からzipファイルをダウンロードし、適当なディレクトリに展開する。<br>

方法2: 自前でビルド
----

```
$ git clone https://github.com/mkaminaga/tle
$ cd tle
$ vim tle.mk
$ nmake /f tle.mk | iconv -f cp932 -t utf-8
```

注意点は、`nmake`を実行する前に[tle.mk](tle.mk)を編集し、`CC`をclコンパイラのパスに、`LINK`をリンカのパスに変更することである。

実装の説明
----

入力データ
------
`struct sat::TLEDesc`が入力データを格納する構造体である。<br>
リストは宣言順<br>

|メンバ変数|説明|単位|
|---|---|---|
|std::wstring line_0|TLE 0 行目|なし|
|std::wstring line_1|TLE 1 行目|なし|
|std::wstring line_2|TLE 2 行目|なし|

出力データ
------
`struct sat::TLEData`が出力データを格納する構造体である。<br>
リストは宣言順<br>

|メンバ変数|説明|単位|
|---|---|---|
|int sat_num|衛星カタログ番号|なし|
|int id_1|国際衛星識別符号 (打上げ年の下2桁)|なし|
|int id_2|国際衛星識別符号 (その年の打上げの通番)|なし|
|int model|この軌道要素を算出した軌道モデル<br>'1':SGP<br>'2':SGP4<br>'3':SDP4<br>'4':SGP8<br>'5':SDP8|なし|
|int s_num|軌道要素通番|なし|
|int epoch_year|この軌道要素の元期 (年の下2桁)|年|
|int rev|元期における通算周回数|rev|
|wchar_t classification|軍事機密種別<br>'S':秘匿<br>'U':公開|なし|
|wchar_t id_3[3]|際衛星識別符号 (その打上げによる飛行体の通番)|なし|
|double epoch_days|元期 (続き) (その年の通日、時刻を表す小数)|日|
|double ndot|平均運動の1次微分値を2で割った値|rev/day^2|
|double nddot|平均運動の2次微分値を6で割った値|rev/day^3|
|double bstar|B\* (B STAR) 抗力項|なし|
|double inclo|軌道傾斜角|deg|
|double nodeo|昇交点の赤経|deg|
|double ecco|離心率|deg|
|double argpo|近地点引数|deg|
|double mo|平均近点角|deg|
|double no|平均運動|deg|
|std::wstring name|衛星名|なし|

参考: [2行軌道要素形式(Wikipedia)](https://ja.wikipedia.org/wiki/2%E8%A1%8C%E8%BB%8C%E9%81%93%E8%A6%81%E7%B4%A0%E5%BD%A2%E5%BC%8F)

変換関数
------

```
bool ReadTLE(const TLEDesc& desc, TLEData* tle);
```

この関数は`sat::TLEDesc`にTLEの各行をセットして入力すると、出力`sat::TLEData`を返す。

サンプルのビルドと実行
----
以下のコマンドを実行する。

```
$ cd tle
$ nmake
$ ./test.exe | iconv -f cp932 -t utf-8
```

実行結果

```
$ ./test.exe | iconv -f cp932 -t utf-8

ISS (ZARYA)
衛星名:ISS (ZARYA)

1 25544U 98067A   17249.78765650  .00006095  00000-0  99372-4 0  9991
衛星カタログ番号:25544
軍事機密種別:U
国際識別番号（打ち上げ年下二桁）:98
国際識別番号（打ち上げ通番）:67
国際識別番号（飛翔体通番）:A
元期（年下二桁）:17
元期（通日）:249.78765650
平均運動一次微分値の1/2倍:0.00006095
平均運動二次微分値の1/6倍:0.00000000
抗力項:0.00009937
軌道モデル:0
軌道要素通番:999

2 25544  51.6444 351.5411 0004084 234.7486 264.1180 15.54087690 74442
軌道傾斜角:51.64440000
昇交点赤経:351.54110000
離心率:0.00040840
近地点引数:234.74860000
平均近点角:264.11800000
平均運動:15.54087690
元期における通算周回数:7444

CUBESAT XI-IV (CO-57)
衛星名:CUBESAT XI-IV (CO-57)

1 27848U 03031J   17249.92680291  .00000064  00000-0  49201-4 0  9996
衛星カタログ番号:27848
軍事機密種別:U
国際識別番号（打ち上げ年下二桁）:3
国際識別番号（打ち上げ通番）:31
国際識別番号（飛翔体通番）:J
元期（年下二桁）:17
元期（通日）:249.92680291
平均運動一次微分値の1/2倍:0.00000064
平均運動二次微分値の1/6倍:0.00000000
抗力項:0.00004920
軌道モデル:0
軌道要素通番:999

2 27848  98.6996 258.0390 0010708 117.5695 242.6571 14.21669304735812
軌道傾斜角:98.69960000
昇交点赤経:258.03900000
離心率:0.00107080
近地点引数:117.56950000
平均近点角:242.65710000
平均運動:14.21669304
元期における通算周回数:73581

CUTE-1 (CO-55)
衛星名:CUTE-1 (CO-55)

1 27844U 03031E   17249.97520071  .00000092  00000-0  61369-4 0  9996
衛星カタログ番号:27844
軍事機密種別:U
国際識別番号（打ち上げ年下二桁）:3
国際識別番号（打ち上げ通番）:31
国際識別番号（飛翔体通番）:E
元期（年下二桁）:17
元期（通日）:249.97520071
平均運動一次微分値の1/2倍:0.00000092
平均運動二次微分値の1/6倍:0.00000000
抗力項:0.00006137
軌道モデル:0
軌道要素通番:999

2 27844  98.6903 257.7937 0010881 108.6420 251.5939 14.22057092735945
軌道傾斜角:98.69030000
昇交点赤経:257.79370000
離心率:0.00108810
近地点引数:108.64200000
平均近点角:251.59390000
平均運動:14.22057092
元期における通算周回数:73594

ITF-2
衛星名:ITF-2

1 41932U 98067KU  17249.55458570  .00023584  00000-0  27558-3 0  9993
衛星カタログ番号:41932
軍事機密種別:U
国際識別番号（打ち上げ年下二桁）:98
国際識別番号（打ち上げ通番）:67
国際識別番号（飛翔体通番）:KU
元期（年下二桁）:17
元期（通日）:249.55458570
平均運動一次微分値の1/2倍:0.00023584
平均運動二次微分値の1/6倍:0.00000000
抗力項:0.00027558
軌道モデル:0
軌道要素通番:999

2 41932  51.6416 345.8089 0004200 218.6727 141.3966 15.61468125 36244
軌道傾斜角:51.64160000
昇交点赤経:345.80890000
離心率:0.00042000
近地点引数:218.67270000
平均近点角:141.39660000
平均運動:15.61468125
元期における通算周回数:3624
```

ライセンス
----
MITライセンスで公開する<br>
詳しくは[LICENSE.md](LICENSE.md)を参照すること
